NORAD_CAT_ID,OBJECT_NAME,OBJECT_TYPE,EPOCH,MEAN_MOTION,ECCENTRICITY,INCLINATION,RA_OF_ASC_NODE,ARG_OF_PERICENTER,MEAN_ANOMALY,BSTAR,MEAN_MOTION_DOT,MEAN_MOTION_DDOT,TLE_LINE0,TLE_LINE1,TLE_LINE2,SEMIMAJOR_AXIS,PERIOD,APOGEE,PERIGEE,DECAYED
55782.0,STARLINK-5826,PAYLOAD,2024-01-18 22:40:31,14.98333507,0.0002597,70.0006,13.1775,261.5537,98.5328,-1.3462e-05,-2.54e-06,0.0,0 STARLINK-5826,1 55782U 23028AT  24018.94480948 -.00000254  00000-0 -13462-4 0  9996,2 55782  70.0006  13.1775 0002597 261.5537  98.5328 14.98333507 50078,6950.182,96.107,573.852,570.242,0.0
55782.0,STARLINK-5826,PAYLOAD,2024-01-19 03:28:55,14.98331553,0.0002626,70.0005,12.672,262.7655,97.3206,-3.3864e-05,-4.97e-06,0.0,0 STARLINK-5826,1 55782U 23028AT  24019.14509093 -.00000497  00000-0 -33864-4 0  9999,2 55782  70.0005  12.6720 0002626 262.7655  97.3206 14.98331553 50103,6950.188,96.107,573.878,570.228,0.0
55782.0,STARLINK-5826,PAYLOAD,2024-01-19 09:53:27,14.98332588,0.0002613,70.0006,11.9987,263.186,96.9002,-1.8515e-05,-3.14e-06,0.0,0 STARLINK-5826,1 55782U 23028AT  24019.41212957 -.00000314  00000-0 -18515-4 0  9993,2 55782  70.0006  11.9987 0002613 263.1860  96.9002 14.98332588 50142,6950.185,96.107,573.866,570.234,0.0
55782.0,STARLINK-5826,PAYLOAD,2024-01-20 03:30:56,14.98330106,0.0002631,70.0008,10.1468,264.8076,95.2783,-7.4624e-06,-1.82e-06,0.0,0 STARLINK-5826,1 55782U 23028AT  24020.14648955 -.00000182  00000-0 -74624-5 0  9993,2 55782  70.0008  10.1468 0002631 264.8076  95.2783 14.98330106 50250,6950.193,96.107,573.886,570.229,0.0
55782.0,STARLINK-5826,PAYLOAD,2024-01-20 08:19:20,14.98330269,0.0002628,70.0008,9.6419,264.6064,95.4796,-4.5928e-06,-1.48e-06,0.0,0 STARLINK-5826,1 55782U 23028AT  24020.34676938 -.00000148  00000-0 -45928-5 0  9994,2 55782  70.0008   9.6419 0002628 264.6064  95.4796 14.98330269 50289,6950.192,96.107,573.884,570.231,0.0
55782.0,STARLINK-5826,PAYLOAD,2024-01-20 22:44:33,14.98326274,0.0002574,70.0009,8.1273,259.9264,100.1605,-4.2382e-06,-1.43e-06,0.0,0 STARLINK-5826,1 55782U 23028AT  24020.94761188 -.00000143  00000-0 -42382-5 0  9998,2 55782  70.0009   8.1273 0002574 259.9264 100.1605 14.98326274 50375,6950.204,96.107,573.858,570.28,0.0
55782.0,STARLINK-5826,PAYLOAD,2024-01-21 03:32:57,14.98325034,0.0002664,70.0007,7.6219,259.8227,100.2632,-2.5827e-05,-4.01e-06,0.0,0 STARLINK-5826,1 55782U 23028AT  24021.14789346 -.00000401  00000-0 -25827-4 0  9998,2 55782  70.0007   7.6219 0002664 259.8227 100.2632 14.98325034 50403,6950.208,96.107,573.925,570.222,0.0
55782.0,STARLINK-5826,PAYLOAD,2024-01-21 06:45:14,14.98325101,0.0002645,70.0009,7.2855,259.6194,100.4667,-2.1885e-05,-3.54e-06,0.0,0 STARLINK-5826,1 55782U 23028AT  24021.28141380 -.00000354  00000-0 -21885-4 0  9990,2 55782  70.0009   7.2855 0002645 259.6194 100.4667 14.98325101 50424,6950.208,96.107,573.911,570.235,0.0
55782.0,STARLINK-5826,PAYLOAD,2024-01-21 08:21:21,14.98352938,0.0002974,70.0003,7.1167,267.1054,92.9764,-0.00046194,-5.604e-05,0.0,0 STARLINK-5826,1 55782U 23028AT  24021.34816620 -.00005604  00000-0 -46194-3 0  9995,2 55782  70.0003   7.1167 0002974 267.1054  92.9764 14.98352938 50439,6950.122,96.106,574.054,569.92,0.0
55782.0,STARLINK-5826,PAYLOAD,2024-01-21 22:46:34,14.983306,0.0002943,70.0001,5.6018,267.1838,92.8984,3.0591e-06,-5.6e-07,0.0,0 STARLINK-5826,1 55782U 23028AT  24021.94901014 -.00000056  00000-0  30591-5 0  9994,2 55782  70.0001   5.6018 0002943 267.1838  92.8984 14.98330600 50526,6950.191,96.107,574.101,570.011,0.0
55782.0,STARLINK-5826,PAYLOAD,2024-01-22 03:34:58,14.98330612,0.0002952,70.0001,5.0967,266.8589,93.2233,3.4141e-06,-5.2e-07,0.0,0 STARLINK-5826,1 55782U 23028AT  24022.14928997 -.00000052  00000-0  34141-5 0  9997,2 55782  70.0001   5.0967 0002952 266.8589  93.2233 14.98330612 50550,6950.191,96.107,574.108,570.004,0.0
55782.0,STARLINK-5826,PAYLOAD,2024-01-22 06:47:14,14.98331965,0.0002929,70.0002,4.7601,266.6503,93.432,2.1186e-05,1.6e-06,0.0,0 STARLINK-5826,1 55782U 23028AT  24022.28280862  .00000160  00000-0  21186-4 0  9997,2 55782  70.0002   4.7601 0002929 266.6503  93.4320 14.98331965 50573,6950.187,96.107,574.088,570.016,0.0
55782.0,STARLINK-5826,PAYLOAD,2024-01-22 22:48:35,14.98328861,0.0002997,70.0003,3.077,267.2965,92.7851,2.6631e-05,2.25e-06,0.0,0 STARLINK-5826,1 55782U 23028AT  24022.95041014  .00000225  00000-0  26631-4 0  9997,2 55782  70.0003   3.0770 0002997 267.2965  92.7851 14.98328861 50670,6950.196,96.107,574.144,569.978,0.0
55782.0,STARLINK-5826,PAYLOAD,2024-01-23 03:36:59,14.98329031,0.0002997,70.0003,2.5721,267.3591,92.7225,2.7361e-05,2.33e-06,0.0,0 STARLINK-5826,1 55782U 23028AT  24023.15069006  .00000233  00000-0  27361-4 0  9991,2 55782  70.0003   2.5721 0002997 267.3591  92.7225 14.98329031 50705,6950.196,96.107,574.144,569.978,0.0
55782.0,STARLINK-5826,PAYLOAD,2024-01-23 06:49:15,14.98332744,0.0002955,70.0004,2.2355,267.1208,92.9613,7.1612e-05,7.62e-06,0.0,0 STARLINK-5826,1 55782U 23028AT  24023.28420647  .00000762  00000-0  71612-4 0  9992,2 55782  70.0004   2.2355 0002955 267.1208  92.9613 14.98332744 50723,6950.184,96.107,574.103,569.996,0.0
55782.0,STARLINK-5826,PAYLOAD,2024-01-23 08:25:23,14.9833371,0.0002955,70.0004,2.0674,267.3354,92.7467,8.05e-05,8.68e-06,0.0,0 STARLINK-5826,1 55782U 23028AT  24023.35096550  .00000868  00000-0  80500-4 0  9995,2 55782  70.0004   2.0674 0002955 267.3354  92.7467 14.98333710 50739,6950.181,96.107,574.1,569.993,0.0
55782.0,STARLINK-5826,PAYLOAD,2024-01-23 22:50:36,14.98335262,0.0002523,70.0014,0.5529,269.7005,90.3865,-0.00016145,-2.019e-05,0.0,0 STARLINK-5826,1 55782U 23028AT  24023.95181303 -.00002019  00000-0 -16145-3 0  9997,2 55782  70.0014   0.5529 0002523 269.7005  90.3865 14.98335262 50822,6950.177,96.107,573.795,570.288,0.0
55782.0,STARLINK-5826,PAYLOAD,2024-01-24 03:39:00,14.98326915,0.0002679,70.0012,0.0483,268.4222,91.663,-5.9782e-05,-8.06e-06,0.0,0 STARLINK-5826,1 55782U 23028AT  24024.15209457 -.00000806  00000-0 -59782-4 0  9998,2 55782  70.0012   0.0483 0002679 268.4222  91.6630 14.98326915 50855,6950.202,96.107,573.929,570.205,0.0
55782.0,STARLINK-5826,PAYLOAD,2024-01-24 08:27:24,14.98328936,0.0002619,70.0013,359.5438,257.5185,102.5681,-2.9073e-05,-4.4e-06,0.0,0 STARLINK-5826,1 55782U 23028AT  24024.35237178 -.00000440  00000-0 -29073-4 0  9995,2 55782  70.0013 359.5438 0002619 257.5185 102.5681 14.98328936 50885,6950.196,96.107,573.881,570.241,0.0
55782.0,STARLINK-5826,PAYLOAD,2024-01-24 22:52:37,14.98332134,0.000255,70.0014,358.0294,252.969,107.1189,1.8834e-05,1.32e-06,0.0,0 STARLINK-5826,1 55782U 23028AT  24024.95320808  .00000132  00000-0  18834-4 0  9993,2 55782  70.0014 358.0294 0002550 252.9690 107.1189 14.98332134 50973,6950.186,96.107,573.824,570.279,0.0
55782.0,STARLINK-5826,PAYLOAD,2024-01-25 03:41:01,14.98331852,0.0002564,70.0013,357.5244,252.387,107.7009,1.4611e-05,8.1e-07,0.0,0 STARLINK-5826,1 55782U 23028AT  24025.15348809  .00000081  00000-0  14611-4 0  9999,2 55782  70.0013 357.5244 0002564 252.3870 107.7009 14.98331852 51008,6950.187,96.107,573.834,570.27,0.0
55782.0,STARLINK-5826,PAYLOAD,2024-01-25 06:53:17,14.98333483,0.0002538,70.0014,357.1879,251.3043,108.784,3.4675e-05,3.21e-06,0.0,0 STARLINK-5826,1 55782U 23028AT  24025.28700633  .00000321  00000-0  34675-4 0  9999,2 55782  70.0014 357.1879 0002538 251.3043 108.7840 14.98333483 51029,6950.182,96.107,573.811,570.283,0.0
55782.0,STARLINK-5826,PAYLOAD,2024-01-25 22:54:38,14.98328641,0.000251,70.0011,355.504,255.0802,105.0079,2.9085e-05,2.54e-06,0.0,0 STARLINK-5826,1 55782U 23028AT  24025.95460909  .00000254  00000-0  29085-4 0  9996,2 55782  70.0011 355.5040 0002510 255.0802 105.0079 14.98328641 51127,6950.197,96.107,573.807,570.318,0.0
55782.0,STARLINK-5826,PAYLOAD,2024-01-26 03:43:02,14.98327959,0.0002447,70.0017,355.0,243.3636,116.7273,4.1342e-05,4e-06,0.0,0 STARLINK-5826,1 55782U 23028AT  24026.15488882  .00000400  00000-0  41342-4 0  9992,2 55782  70.0017 355.0000 0002447 243.3636 116.7273 14.98327959 51157,6950.199,96.107,573.765,570.363,0.0
55782.0,STARLINK-5826,PAYLOAD,2024-01-26 06:55:18,14.98329247,0.0002496,70.0013,354.6621,257.7895,102.2985,4.9354e-05,4.96e-06,0.0,0 STARLINK-5826,1 55782U 23028AT  24026.28840850  .00000496  00000-0  49354-4 0  9999,2 55782  70.0013 354.6621 0002496 257.7895 102.2985 14.98329247 51171,6950.195,96.107,573.795,570.325,0.0
55782.0,STARLINK-5826,PAYLOAD,2024-01-27 03:45:03,14.98329327,0.0002506,70.0023,352.4762,234.1177,125.975,-2.3524e-05,-3.74e-06,0.0,0 STARLINK-5826,1 55782U 23028AT  24027.15628947 -.00000374  00000-0 -23524-4 0  9995,2 55782  70.0023 352.4762 0002506 234.1177 125.9750 14.98329327 51304,6950.195,96.107,573.802,570.318,0.0
55782.0,STARLINK-5826,PAYLOAD,2024-01-27 06:57:19,14.98330552,0.0002673,70.0009,352.1363,264.979,95.1064,-4.0675e-06,-1.41e-06,0.0,0 STARLINK-5826,1 55782U 23028AT  24027.28980931 -.00000141  00000-0 -40675-5 0  9992,2 55782  70.0009 352.1363 0002673 264.9790  95.1064 14.98330552 51329,6950.191,96.107,573.914,570.198,0.0
55782.0,STARLINK-5826,PAYLOAD,2024-01-27 21:22:32,14.98325469,0.0002722,70.001,350.6212,266.4829,93.6019,3.2466e-05,2.94e-06,0.0,0 STARLINK-5826,1 55782U 23028AT  24027.89065115  .00000294  00000-0  32466-4 0  9992,2 55782  70.0010 350.6212 0002722 266.4829  93.6019 14.98325469 51416,6950.207,96.107,573.964,570.18,0.0
55782.0,STARLINK-5826,PAYLOAD,2024-01-28 03:47:04,14.98325221,0.0002697,70.0007,349.9471,262.5712,97.514,3.1901e-05,2.88e-06,0.0,0 STARLINK-5826,1 55782U 23028AT  24028.15769172  .00000288  00000-0  31901-4 0  9992,2 55782  70.0007 349.9471 0002697 262.5712  97.5140 14.98325221 51457,6950.208,96.107,573.947,570.198,0.0
55782.0,STARLINK-5826,PAYLOAD,2024-01-28 06:59:20,14.98328283,0.000268,70.0008,349.611,262.086,97.9995,4.13e-05,4e-06,0.0,0 STARLINK-5826,1 55782U 23028AT  24028.29120977  .00000400  00000-0  41300-4 0  9991,2 55782  70.0008 349.6110 0002680 262.0860  97.9995 14.98328283 51471,6950.198,96.107,573.926,570.201,0.0
